FENGYUN 1C DEB          
1 33689U 99025DGA 26062.28926018  .00004081  00000+0  11488-2 0  9992
2 33689  99.5631  84.7451 0046388 276.2332 146.0418 14.45863811706948
FENGYUN 1C DEB          
1 33690U 99025DGB 26063.76200366  .00013566  00000+0  32549-2 0  9998
2 33690  98.6084 169.2302 0033228 158.9570 201.3001 14.53211327944108
FENGYUN 1C DEB          
1 33693U 99025DGE 26058.77269699  .00001100  00000+0  10553-2 0  9992
2 33693  99.2233 238.5197 0226291 157.4289 203.7005 13.71582406892875
FENGYUN 1C DEB          
1 33698U 99025DGK 26061.86766994  .00002862  00000+0  58578-3 0  9997
2 33698  99.6335  39.1565 0137202 340.6819  18.9202 14.56031855968026
FENGYUN 1C DEB          
1 33701U 99025DGN 26060.40330010  .00002849  00000+0  17263-2 0  9997
2 33701  98.6706  16.0026 0134234 328.8352  30.4904 14.02789574916086
FENGYUN 1C DEB          
1 33710U 99025DGX 26061.50968292  .00001828  00000+0  10106-2 0  9993
2 33710  98.9754 165.4209 0053673 280.6123  78.9005 14.11962083687826
FENGYUN 1C DEB          
1 33711U 99025DGY 26063.10137274  .00001471  00000+0  96875-3 0  9992
2 33711  99.1699 121.9575 0098143 182.4725 209.5838 14.01095705930711
FENGYUN 1C DEB          
1 33716U 99025DHD 26059.07289101  .00000328  00000+0  13079-3 0  9990
2 33716  98.8790 351.5226 0094150 130.4383 230.5059 14.32753165662654
FENGYUN 1C DEB          
1 33718U 99025DHF 26061.03054201  .00002521  00000+0  14280-2 0  9993
2 33718  99.6536 158.1794 0099797 104.3244 256.9028 14.08589093703027
FENGYUN 1C DEB          
1 33719U 99025DHG 26063.67732509  .00002877  00000+0  12694-2 0  9991
2 33719  98.7619 128.3872 0031198 199.0530 313.4868 14.23851755931798
FENGYUN 1C DEB          
1 33722U 99025DHK 26063.01830056  .00002031  00000+0  83258-3 0  9996
2 33722  98.5720  80.0694 0158148  16.5293 344.0958 14.21622008933026
FENGYUN 1C DEB          
1 33723U 99025DHL 26062.17694262  .00004472  00000+0  22609-2 0  9993
2 33723  99.1461 149.6312 0100521 106.1649 285.5668 14.14086579647600
FENGYUN 1C DEB          
1 33724U 99025DHM 26061.31975338  .00001053  00000+0  51510-3 0  9991
2 33724  98.6032  74.3833 0026386 315.1821  54.9873 14.19824899950918
FENGYUN 1C DEB          
1 33726U 99025DHP 26063.84313316  .00001772  00000+0  79073-3 0  9997
2 33726  98.6435 190.4583 0192965 155.6494 357.2585 14.14506181930923
FENGYUN 1C DEB          
1 33728U 99025DHR 26063.64886041  .00007262  00000+0  56441-3 0  9991
2 33728  98.9643 136.0183 0144651 312.1079  46.7912 14.93724882995224
FENGYUN 1C DEB          
1 33730U 99025DHT 26051.00592264  .00007082  00000+0  13184-2 0  9998
2 33730  99.0449 120.5641 0040314 158.1247 202.1686 14.64909094966936
